[{"OBJECT_NAME":"COSMOS 2433 (720)","OBJECT_ID":"2007-052A","EPOCH":"2026-03-14T03:00:53.294976","MEAN_MOTION":2.13104275,"ECCENTRICITY":0.00016336,"INCLINATION":65.6294,"RA_OF_ASC_NODE":319.1347,"ARG_OF_PERICENTER":271.6855,"MEAN_ANOMALY":88.3568,"EPHEMERIS_TYPE":0,"CLASSIFICATION_TYPE":"U","NORAD_CAT_ID":32275,"ELEMENT_SET_NO":999,"REV_AT_EPOCH":14303,"BSTAR":0,"MEAN_MOTION_DOT":-2.7e-7,"MEAN_MOTION_DDOT":0},{"OBJECT_NAME":"COSMOS 2432 (719)","OBJECT_ID":"2007-052B","EPOCH":"2026-03-14T09:02:33.929376","MEAN_MOTION":2.13103436,"ECCENTRICITY":0.00103908,"INCLINATION":65.6451,"RA_OF_ASC_NODE":319.2522,"ARG_OF_PERICENTER":332.5388,"MEAN_ANOMALY":164.3883,"EPHEMERIS_TYPE":0,"CLASSIFICATION_TYPE":"U","NORAD_CAT_ID":32276,"ELEMENT_SET_NO":999,"REV_AT_EPOCH":14306,"BSTAR":0,"MEAN_MOTION_DOT":-2.6e-7,"MEAN_MOTION_DDOT":0},{"OBJECT_NAME":"COSMOS 2434 (721)","OBJECT_ID":"2007-065A","EPOCH":"2026-03-14T12:03:44.221824","MEAN_MOTION":2.13101403,"ECCENTRICITY":0.00033602,"INCLINATION":64.318,"RA_OF_ASC_NODE":195.1067,"ARG_OF_PERICENTER":68.6794,"MEAN_ANOMALY":110.8332,"EPHEMERIS_TYPE":0,"CLASSIFICATION_TYPE":"U","NORAD_CAT_ID":32393,"ELEMENT_SET_NO":999,"REV_AT_EPOCH":14175,"BSTAR":0,"MEAN_MOTION_DOT":1.0e-8,"MEAN_MOTION_DDOT":0},{"OBJECT_NAME":"COSMOS 2436 (723)","OBJECT_ID":"2007-065C","EPOCH":"2026-03-11T11:00:42.021216","MEAN_MOTION":2.13100266,"ECCENTRICITY":0.00173889,"INCLINATION":64.3265,"RA_OF_ASC_NODE":195.2806,"ARG_OF_PERICENTER":6.1321,"MEAN_ANOMALY":131.0155,"EPHEMERIS_TYPE":0,"CLASSIFICATION_TYPE":"U","NORAD_CAT_ID":32395,"ELEMENT_SET_NO":999,"REV_AT_EPOCH":14164,"BSTAR":0,"MEAN_MOTION_DOT":1.6e-7,"MEAN_MOTION_DDOT":0},{"OBJECT_NAME":"COSMOS 2456 (730)","OBJECT_ID":"2009-070A","EPOCH":"2026-03-14T05:02:15.089568","MEAN_MOTION":2.13103787,"ECCENTRICITY":0.00063895,"INCLINATION":64.9552,"RA_OF_ASC_NODE":74.2106,"ARG_OF_PERICENTER":306.0764,"MEAN_ANOMALY":166.4975,"EPHEMERIS_TYPE":0,"CLASSIFICATION_TYPE":"U","NORAD_CAT_ID":36111,"ELEMENT_SET_NO":999,"REV_AT_EPOCH":12640,"BSTAR":0,"MEAN_MOTION_DOT":5.3e-7,"MEAN_MOTION_DDOT":0},{"OBJECT_NAME":"COSMOS 2457 (733)","OBJECT_ID":"2009-070B","EPOCH":"2026-03-14T01:15:57.143808","MEAN_MOTION":2.13101225,"ECCENTRICITY":0.00021133,"INCLINATION":64.9407,"RA_OF_ASC_NODE":74.0614,"ARG_OF_PERICENTER":199.4034,"MEAN_ANOMALY":280.8951,"EPHEMERIS_TYPE":0,"CLASSIFICATION_TYPE":"U","NORAD_CAT_ID":36112,"ELEMENT_SET_NO":999,"REV_AT_EPOCH":12640,"BSTAR":0,"MEAN_MOTION_DOT":5.2e-7,"MEAN_MOTION_DDOT":0},{"OBJECT_NAME":"COSMOS 2460 (732)","OBJECT_ID":"2010-007C","EPOCH":"2026-03-14T03:01:10.525728","MEAN_MOTION":2.13106375,"ECCENTRICITY":0.00019654,"INCLINATION":65.4743,"RA_OF_ASC_NODE":317.6854,"ARG_OF_PERICENTER":24.0874,"MEAN_ANOMALY":153.1858,"EPHEMERIS_TYPE":0,"CLASSIFICATION_TYPE":"U","NORAD_CAT_ID":36402,"ELEMENT_SET_NO":999,"REV_AT_EPOCH":12470,"BSTAR":0,"MEAN_MOTION_DOT":-2.4e-7,"MEAN_MOTION_DDOT":0},{"OBJECT_NAME":"COSMOS 2476 (744)","OBJECT_ID":"2011-064A","EPOCH":"2026-03-14T09:56:00.744000","MEAN_MOTION":2.13103967,"ECCENTRICITY":0.00251934,"INCLINATION":65.2155,"RA_OF_ASC_NODE":76.0697,"ARG_OF_PERICENTER":241.7016,"MEAN_ANOMALY":295.7217,"EPHEMERIS_TYPE":0,"CLASSIFICATION_TYPE":"U","NORAD_CAT_ID":37867,"ELEMENT_SET_NO":999,"REV_AT_EPOCH":11174,"BSTAR":0,"MEAN_MOTION_DOT":5.8e-7,"MEAN_MOTION_DDOT":0},{"OBJECT_NAME":"COSMOS 2477 (745)","OBJECT_ID":"2011-064B","EPOCH":"2026-03-10T04:34:38.705664","MEAN_MOTION":2.13102941,"ECCENTRICITY":0.00222747,"INCLINATION":65.2195,"RA_OF_ASC_NODE":76.2908,"ARG_OF_PERICENTER":243.0435,"MEAN_ANOMALY":115.1265,"EPHEMERIS_TYPE":0,"CLASSIFICATION_TYPE":"U","NORAD_CAT_ID":37868,"ELEMENT_SET_NO":999,"REV_AT_EPOCH":11164,"BSTAR":0,"MEAN_MOTION_DOT":1.9e-7,"MEAN_MOTION_DDOT":0},{"OBJECT_NAME":"COSMOS 2475 (743)","OBJECT_ID":"2011-064C","EPOCH":"2026-03-14T02:27:17.971776","MEAN_MOTION":2.13101852,"ECCENTRICITY":0.00281626,"INCLINATION":65.2287,"RA_OF_ASC_NODE":76.1793,"ARG_OF_PERICENTER":254.5882,"MEAN_ANOMALY":179.9345,"EPHEMERIS_TYPE":0,"CLASSIFICATION_TYPE":"U","NORAD_CAT_ID":37869,"ELEMENT_SET_NO":999,"REV_AT_EPOCH":11174,"BSTAR":0,"MEAN_MOTION_DOT":5.6e-7,"MEAN_MOTION_DDOT":0},{"OBJECT_NAME":"COSMOS 2485 (747)","OBJECT_ID":"2013-019A","EPOCH":"2026-03-13T04:20:55.074336","MEAN_MOTION":2.13103289,"ECCENTRICITY":0.00254828,"INCLINATION":65.3652,"RA_OF_ASC_NODE":76.8254,"ARG_OF_PERICENTER":237.2132,"MEAN_ANOMALY":122.579,"EPHEMERIS_TYPE":0,"CLASSIFICATION_TYPE":"U","NORAD_CAT_ID":39155,"ELEMENT_SET_NO":999,"REV_AT_EPOCH":10023,"BSTAR":0,"MEAN_MOTION_DOT":5.1e-7,"MEAN_MOTION_DDOT":0},{"OBJECT_NAME":"COSMOS 2492 (754)","OBJECT_ID":"2014-012A","EPOCH":"2026-03-13T14:37:25.800960","MEAN_MOTION":2.13103479,"ECCENTRICITY":0.00130348,"INCLINATION":65.3522,"RA_OF_ASC_NODE":317.1866,"ARG_OF_PERICENTER":327.2889,"MEAN_ANOMALY":32.6912,"EPHEMERIS_TYPE":0,"CLASSIFICATION_TYPE":"U","NORAD_CAT_ID":39620,"ELEMENT_SET_NO":999,"REV_AT_EPOCH":9320,"BSTAR":0,"MEAN_MOTION_DOT":-2.7e-7,"MEAN_MOTION_DDOT":0},{"OBJECT_NAME":"COSMOS 2500 (755)","OBJECT_ID":"2014-032A","EPOCH":"2026-03-14T05:59:23.159904","MEAN_MOTION":2.13106194,"ECCENTRICITY":0.0005019,"INCLINATION":65.2871,"RA_OF_ASC_NODE":316.9195,"ARG_OF_PERICENTER":197.8239,"MEAN_ANOMALY":162.2208,"EPHEMERIS_TYPE":0,"CLASSIFICATION_TYPE":"U","NORAD_CAT_ID":40001,"ELEMENT_SET_NO":999,"REV_AT_EPOCH":9143,"BSTAR":0,"MEAN_MOTION_DOT":-2.2e-7,"MEAN_MOTION_DDOT":0},{"OBJECT_NAME":"COSMOS 2501 (702K)","OBJECT_ID":"2014-075A","EPOCH":"2026-03-14T00:59:02.749920","MEAN_MOTION":2.13101375,"ECCENTRICITY":0.00209682,"INCLINATION":63.6166,"RA_OF_ASC_NODE":193.6632,"ARG_OF_PERICENTER":206.5488,"MEAN_ANOMALY":153.3288,"EPHEMERIS_TYPE":0,"CLASSIFICATION_TYPE":"U","NORAD_CAT_ID":40315,"ELEMENT_SET_NO":999,"REV_AT_EPOCH":8782,"BSTAR":0,"MEAN_MOTION_DOT":0,"MEAN_MOTION_DDOT":0},{"OBJECT_NAME":"COSMOS 2514 (751)","OBJECT_ID":"2016-008A","EPOCH":"2026-03-14T00:36:38.333088","MEAN_MOTION":2.13102734,"ECCENTRICITY":0.00090114,"INCLINATION":65.0768,"RA_OF_ASC_NODE":316.2748,"ARG_OF_PERICENTER":206.8717,"MEAN_ANOMALY":153.1435,"EPHEMERIS_TYPE":0,"CLASSIFICATION_TYPE":"U","NORAD_CAT_ID":41330,"ELEMENT_SET_NO":999,"REV_AT_EPOCH":7859,"BSTAR":0,"MEAN_MOTION_DOT":-2.3e-7,"MEAN_MOTION_DDOT":0},{"OBJECT_NAME":"COSMOS 2522 (752)","OBJECT_ID":"2017-055A","EPOCH":"2026-03-14T07:58:53.768064","MEAN_MOTION":2.13101875,"ECCENTRICITY":0.00075908,"INCLINATION":64.0786,"RA_OF_ASC_NODE":195.11,"ARG_OF_PERICENTER":228.7729,"MEAN_ANOMALY":131.1447,"EPHEMERIS_TYPE":0,"CLASSIFICATION_TYPE":"U","NORAD_CAT_ID":42939,"ELEMENT_SET_NO":999,"REV_AT_EPOCH":6595,"BSTAR":0,"MEAN_MOTION_DOT":1.0e-8,"MEAN_MOTION_DDOT":0},{"OBJECT_NAME":"COSMOS 2527 (756)","OBJECT_ID":"2018-053A","EPOCH":"2026-03-14T07:03:09.493632","MEAN_MOTION":2.13102379,"ECCENTRICITY":0.00096205,"INCLINATION":65.5239,"RA_OF_ASC_NODE":77.0711,"ARG_OF_PERICENTER":246.0472,"MEAN_ANOMALY":113.8919,"EPHEMERIS_TYPE":0,"CLASSIFICATION_TYPE":"U","NORAD_CAT_ID":43508,"ELEMENT_SET_NO":999,"REV_AT_EPOCH":6025,"BSTAR":0,"MEAN_MOTION_DOT":5.9e-7,"MEAN_MOTION_DDOT":0}]
